NORAD_CAT_ID,OBJECT_NAME,OBJECT_TYPE,EPOCH,MEAN_MOTION,ECCENTRICITY,INCLINATION,RA_OF_ASC_NODE,ARG_OF_PERICENTER,MEAN_ANOMALY,BSTAR,MEAN_MOTION_DOT,MEAN_MOTION_DDOT,TLE_LINE0,TLE_LINE1,TLE_LINE2,SEMIMAJOR_AXIS,PERIOD,APOGEE,PERIGEE,DECAYED
52867.0,STARLINK-4126,PAYLOAD,2022-08-19 22:00:00,15.49906995,0.0001538,53.2176,92.7546,58.3254,122.1344,-0.00074707,-0.00042655,0.0,0 STARLINK-4126,1 52867U 22062AP  22231.91667824 -.00042655  00000-0 -74707-3 0  9995,2 52867  53.2176  92.7546 0001538  58.3254 122.1344 15.49906995  1309,6795.135,92.909,418.045,415.955,0.0
52867.0,STARLINK-4126,PAYLOAD,2022-08-20 08:00:01,15.49849839,0.0001277,53.2178,90.7634,57.2407,289.3732,-0.00014937,-8.908e-05,0.0,0 STARLINK-4126,1 52867U 22062AP  22232.33334491 -.00008908  00000-0 -14937-3 0  9995,2 52867  53.2178  90.7634 0001277  57.2407 289.3732 15.49849839 10529,6795.302,92.912,418.035,416.299,0.0
52867.0,STARLINK-4126,PAYLOAD,2022-08-20 14:00:01,15.49933307,0.0001104,53.2179,89.5718,63.967,238.2758,-0.0036951,-0.00205117,0.0,0 STARLINK-4126,1 52867U 22062AP  22232.58334491 -.00205117  00000-0 -36951-2 0  9992,2 52867  53.2179  89.5718 0001104  63.9670 238.2758 15.49933307  1305,6795.058000000001,92.907,417.673,416.173,0.0
52867.0,STARLINK-4126,PAYLOAD,2022-08-20 22:00:00,15.49797728,0.000125,53.218,87.9879,50.3949,312.7424,-0.010433,-0.00550992,0.0,0 STARLINK-4126,1 52867U 22062AP  22232.91667824 -.00550992  00000-0 -10433-1 0  9998,2 52867  53.2180  87.9879 0001250  50.3949 312.7424 15.49797728 10615,6795.454000000002,92.915,418.169,416.47,0.0
52867.0,STARLINK-4126,PAYLOAD,2022-08-21 06:00:00,15.49431275,0.0001291,53.2174,86.4009,52.4811,11.2415,-0.02089,-0.01059299,0.0,0 STARLINK-4126,1 52867U 22062AP  22233.25001157 -.01059299  00000-0 -20890-1 0  9990,2 52867  53.2174  86.4009 0001291  52.4811  11.2415 15.49431275 10661,6796.526,92.937,419.268,417.513,0.0
52867.0,STARLINK-4126,PAYLOAD,2022-08-21 14:00:01,15.48670738,0.000147,53.2177,84.8125,52.025,71.5994,-0.021404,-0.01056821,0.0,0 STARLINK-4126,1 52867U 22062AP  22233.58334491 -.01056821  00000-0 -21404-1 0  9996,2 52867  53.2177  84.8125 0001470  52.0250  71.5994 15.48670738  1307,6798.751,92.983,421.615,419.616,0.0
52867.0,STARLINK-4126,PAYLOAD,2022-08-21 22:00:00,15.47911626,0.000159,53.2176,83.2291,50.9074,131.7042,-0.021999,-0.01057511,0.0,0 STARLINK-4126,1 52867U 22062AP  22233.91667824 -.01057511  00000-0 -21999-1 0  9998,2 52867  53.2176  83.2291 0001590  50.9074 131.7042 15.47911626  1303,6800.973000000001,93.029,423.92,421.757,0.0
52867.0,STARLINK-4126,PAYLOAD,2022-08-22 06:00:00,15.47154186,0.0001286,53.2174,81.6443,72.7221,167.9656,-0.022683,-0.01061366,0.0,0 STARLINK-4126,1 52867U 22062AP  22234.25001157 -.01061366  00000-0 -22683-1 0  9991,2 52867  53.2174  81.6443 0001286  72.7221 167.9656 15.47154186 10829,6803.193,93.074,425.9330000000001,424.1830000000001,0.0
52867.0,STARLINK-4126,PAYLOAD,2022-08-22 12:00:00,15.46582899,0.0001452,53.2173,80.4567,57.8326,135.8142,-0.023077,-0.01058815,0.0,0 STARLINK-4126,1 52867U 22062AP  22234.50001157 -.01058815  00000-0 -23077-1 0  9992,2 52867  53.2173  80.4567 0001452  57.8326 135.8142 15.46582899  1309,6804.868,93.108,427.721,425.745,0.0
52867.0,STARLINK-4126,PAYLOAD,2022-08-22 22:00:00,15.45634809,0.0001341,53.2175,78.4835,51.0625,303.0383,-0.02388,-0.01060068,0.0,0 STARLINK-4126,1 52867U 22062AP  22234.91667824 -.01060068  00000-0 -23880-1 0  9991,2 52867  53.2175  78.4835 0001341  51.0625 303.0383 15.45634809  1305,6807.65,93.166,430.42800000000005,428.603,0.0
52867.0,STARLINK-4126,PAYLOAD,2022-08-23 06:00:00,15.44874138,0.000134,53.2175,76.9041,47.9825,1.4574,-0.024464,-0.01058093,0.0,0 STARLINK-4126,1 52867U 22062AP  22235.25001157 -.01058093  00000-0 -24464-1 0  9994,2 52867  53.2175  76.9041 0001340  47.9825   1.4574 15.44874138 10976,6809.885,93.211,432.662,430.837,0.0
52867.0,STARLINK-4126,PAYLOAD,2022-08-23 14:00:01,15.44112878,0.0001543,53.2176,75.3268,46.5747,57.2914,-0.025019,-0.01054632,0.0,0 STARLINK-4126,1 52867U 22062AP  22235.58334491 -.01054632  00000-0 -25019-1 0  9992,2 52867  53.2176  75.3268 0001543  46.5747  57.2914 15.44112878  1304,6812.123000000001,93.257,435.039,432.937,0.0
52867.0,STARLINK-4126,PAYLOAD,2022-08-23 22:00:01,15.4335381,0.0001602,53.2176,73.7542,50.0685,107.3731,-0.0256899999999999,-0.01055207,0.0,0 STARLINK-4126,1 52867U 22062AP  22235.91668981 -.01055207  00000-0 -25690-1 0  9997,2 52867  53.2176  73.7542 0001602  50.0685 107.3731 15.43353810  1304,6814.356,93.303,437.31300000000016,435.13,0.0
52867.0,STARLINK-4126,PAYLOAD,2022-08-24 06:00:00,15.42596484,0.0001408,53.2176,72.1801,62.0782,147.8993,-0.026463,-0.01073836,0.0,0 STARLINK-4126,1 52867U 22062AP  22236.25001157 -.01073836  00000-0 -26463-1 0  9998,2 52867  53.2176  72.1801 0001408  62.0782 147.8993 15.42596484 11136,6816.5859999999975,93.349,439.411,437.492,0.0
52867.0,STARLINK-4126,PAYLOAD,2022-08-24 14:00:01,15.41835063,0.0001402,53.2176,70.6086,59.3534,202.3118,-0.02703,-0.01069433,0.0,0 STARLINK-4126,1 52867U 22062AP  22236.58334491 -.01069433  00000-0 -27030-1 0  9993,2 52867  53.2176  70.6086 0001402  59.3534 202.3118 15.41835063  1304,6818.831,93.395,441.652,439.74,0.0
52867.0,STARLINK-4126,PAYLOAD,2022-08-24 22:00:00,15.41075986,0.0001341,53.2177,69.0413,56.6689,255.7698,-0.027763,-0.01070705,0.0,0 STARLINK-4126,1 52867U 22062AP  22236.91667824 -.01070705  00000-0 -27763-1 0  9996,2 52867  53.2177  69.0413 0001341  56.6689 255.7698 15.41075986  1309,6821.069,93.441,443.849,442.02,0.0
52867.0,STARLINK-4126,PAYLOAD,2022-08-25 06:00:02,15.40317174,0.0001396999999999,53.2176,67.4724,44.0885,318.2773,-0.0285279999999999,-0.01072562,0.0,0 STARLINK-4126,1 52867U 22062AP  22237.25002315 -.01072562  00000-0 -28528-1 0  9995,2 52867  53.2176  67.4724 0001397  44.0885 318.2773 15.40317174 11289,6823.309,93.487,446.128,444.221,0.0
52867.0,STARLINK-4126,PAYLOAD,2022-08-25 14:00:01,15.39556346,0.0001520999999999,53.2177,65.9067,42.2828,8.9684,-0.0291649999999999,-0.01069471,0.0,0 STARLINK-4126,1 52867U 22062AP  22237.58334491 -.01069471  00000-0 -29165-1 0  9997,2 52867  53.2177  65.9067 0001521  42.2828   8.9684 15.39556346  1309,6825.557,93.533,448.46,446.384,0.0
52867.0,STARLINK-4126,PAYLOAD,2022-08-25 22:00:00,15.38795891,0.0001625,53.2177,64.3446,43.3731,55.9142,-0.029869,-0.0106826,0.0,0 STARLINK-4126,1 52867U 22062AP  22237.91667824 -.01068260  00000-0 -29869-1 0  9999,2 52867  53.2177  64.3446 0001625  43.3731  55.9142 15.38795891  1303,6827.806,93.58,450.78,448.561,0.0
52867.0,STARLINK-4126,PAYLOAD,2022-08-26 06:00:00,15.38036873,0.000158,53.2176,62.78100000000001,48.1618,98.2502,-0.0306329999999999,-0.01068568,0.0,0 STARLINK-4126,1 52867U 22062AP  22238.25001157 -.01068568  00000-0 -30633-1 0  9990,2 52867  53.2176  62.7810 0001580  48.1618  98.2502 15.38036873 11439,6830.052,93.626,452.996,450.838,0.0
52867.0,STARLINK-4126,PAYLOAD,2022-08-26 14:00:01,15.37276425,0.0001610999999999,53.2179,61.2209,50.8082,141.8792,-0.031343,-0.01066667,0.0,0 STARLINK-4126,1 52867U 22062AP  22238.58335648 -.01066667  00000-0 -31343-1 0  9998,2 52867  53.2179  61.2209 0001611  50.8082 141.8792 15.37276425  1307,6832.304,93.672,455.27,453.069,0.0
52867.0,STARLINK-4126,PAYLOAD,2022-08-26 22:00:00,15.36515668,0.0001482,53.2176,59.6642,58.2548,179.6665,-0.0320509999999999,-0.01064284,0.0,0 STARLINK-4126,1 52867U 22062AP  22238.91667824 -.01064284  00000-0 -32051-1 0  9999,2 52867  53.2176  59.6642 0001482  58.2548 179.6665 15.36515668  1303,6834.559,93.719,457.437,455.411,0.0
52867.0,STARLINK-4126,PAYLOAD,2022-08-27 14:00:01,15.34999599,0.0001373,53.2177,56.5512,51.8956,273.8848,-0.033818,-0.01068896,0.0,0 STARLINK-4126,1 52867U 22062AP  22239.58334491 -.01068896  00000-0 -33818-1 0  9999,2 52867  53.2177  56.5512 0001373  51.8956 273.8848 15.34999599  1304,6839.059,93.811,461.86300000000006,459.985,0.0
52867.0,STARLINK-4126,PAYLOAD,2022-08-27 22:00:00,15.34238267,0.0001384,53.2175,54.9999,49.2598,319.0811,-0.034557,-0.01066173,0.0,0 STARLINK-4126,1 52867U 22062AP  22239.91667824 -.01066173  00000-0 -34557-1 0  9992,2 52867  53.2175  54.9999 0001384  49.2598 319.0811 15.34238267  1309,6841.321,93.858,464.133,462.239,0.0
52867.0,STARLINK-4126,PAYLOAD,2022-08-28 06:00:00,15.33479274,0.0001453,53.2175,53.447,44.2003,5.7897,-0.03545,-0.01067473,0.0,0 STARLINK-4126,1 52867U 22062AP  22240.25001157 -.01067473  00000-0 -35450-1 0  9999,2 52867  53.2175  53.4470 0001453  44.2003   5.7897 15.33479274 11746,6843.578,93.904,466.43800000000016,464.449,0.0
52867.0,STARLINK-4126,PAYLOAD,2022-08-28 14:00:01,15.32720606,0.0001664,53.2175,51.8978,41.1076,49.617,-0.036351,-0.01068523,0.0,0 STARLINK-4126,1 52867U 22062AP  22240.58334491 -.01068523  00000-0 -36351-1 0  9993,2 52867  53.2175  51.8978 0001664  41.1076  49.6170 15.32720606  1300,6845.8359999999975,93.951,468.84,466.562,0.0
52867.0,STARLINK-4126,PAYLOAD,2022-08-28 22:00:00,15.31956452,0.0001426,53.2174,50.3517,59.4455,71.1026,-0.036939,-0.01060562,0.0,0 STARLINK-4126,1 52867U 22062AP  22240.91667824 -.01060562  00000-0 -36939-1 0  9996,2 52867  53.2174  50.3517 0001426  59.4455  71.1026 15.31956452  1300,6848.113,93.997,470.954,469.001,0.0
52867.0,STARLINK-4126,PAYLOAD,2022-08-29 06:00:02,15.31199248,0.0001563,53.2175,48.8041,51.9159,117.6061,-0.037966,-0.01064131,0.0,0 STARLINK-4126,1 52867U 22062AP  22241.25002315 -.01064131  00000-0 -37966-1 0  9999,2 52867  53.2175  48.8041 0001563  51.9159 117.6061 15.31199248 11909,6850.37,94.044,473.306,471.164,0.0
52867.0,STARLINK-4126,PAYLOAD,2022-08-29 14:00:01,15.30440306,0.0001693,53.2176,47.2607,47.7563,159.6986,-0.038909,-0.01064936,0.0,0 STARLINK-4126,1 52867U 22062AP  22241.58334491 -.01064936  00000-0 -38909-1 0  9999,2 52867  53.2176  47.2607 0001693  47.7563 159.6986 15.30440306  1305,6852.635,94.091,475.66,473.34,0.0
